{
  "type": "FeatureCollection",
  "features": [
    {
      "type": "Feature",
      "geometry": {
        "type": "Point",
        "coordinates": [3.8772, 43.6119]
      },
      "properties": {
        "title": "モンペリエのトラム計画",
        "date": "2026-02-01",
        "category": "都市計画",
        "country": "France",
        "city": "Montpellier",
        "description": "フランス地方都市の公共交通整備。",
        "url": "/kaimonde/pages/article-montpellier-tram.html"
      }
    },
    {
      "type": "Feature",
      "geometry": {
        "type": "Point",
        "coordinates": [3.8772, 43.6119]
      },
      "properties": {
        "title": "モンペリエの自転車政策",
        "date": "2026-03-01",
        "category": "交通",
        "country": "France",
        "city": "Montpellier",
        "description": "自転車インフラ整備の分析。",
        "url": "/kaimonde/pages/article-montpellier-bike.html"
      }
    }
  ]
}
